[
    {
        "Altitude(m)": 605470.766898453,
        "Argument of Periapsis(deg)": 0.0,
        "Eccentricity": 0.0,
        "Inclination(deg)": 60.0,
        "Latitude(deg)": 27.98813114392757,
        "Longitude(deg)": 7.262885224769201,
        "Mean Anomaly(deg)": -212.7273,
        "RAAN(deg)": 305.0,
        "Satellite Name": "Test1 1351",
        "Satellite Number": 1351,
        "Semi-Major Axis(m)": 6980739.136638005,
        "Time(s)": 0
    },
    {
        "Altitude(m)": 605395.8052867692,
        "Argument of Periapsis(deg)": 0.00010418945913296404,
        "Eccentricity": 0.0,
        "Inclination(deg)": 60.0,
        "Latitude(deg)": 27.473822559151493,
        "Longitude(deg)": 7.616074098908383,
        "Mean Anomaly(deg)": -212.10719385453817,
        "RAAN(deg)": 304.99957995086027,
        "Satellite Name": "Test1 1351",
        "Satellite Number": 1351,
        "Semi-Major Axis(m)": 6980739.136638005,
        "Time(s)": 10
    }
]